[{"OBJECT_NAME":"SHIJIAN-6 02B (SJ-6 02B)","OBJECT_ID":"2006-046B","EPOCH":"2026-03-09T23:09:06.940224","MEAN_MOTION":15.01001333,"ECCENTRICITY":0.00140021,"INCLINATION":97.7065,"RA_OF_ASC_NODE":98.697,"ARG_OF_PERICENTER":42.7506,"MEAN_ANOMALY":317.4805,"EPHEMERIS_TYPE":0,"CLASSIFICATION_TYPE":"U","NORAD_CAT_ID":29506,"ELEMENT_SET_NO":999,"REV_AT_EPOCH":5585,"BSTAR":0.00024683398,"MEAN_MOTION_DOT":3.096e-5,"MEAN_MOTION_DDOT":0},{"OBJECT_NAME":"GRUS-1A","OBJECT_ID":"2018-111Q","EPOCH":"2026-03-09T23:18:05.956128","MEAN_MOTION":14.98893897,"ECCENTRICITY":0.00097781,"INCLINATION":97.4655,"RA_OF_ASC_NODE":300.3513,"ARG_OF_PERICENTER":128.8058,"MEAN_ANOMALY":231.404,"EPHEMERIS_TYPE":0,"CLASSIFICATION_TYPE":"U","NORAD_CAT_ID":43890,"ELEMENT_SET_NO":999,"REV_AT_EPOCH":39284,"BSTAR":0.00022419467,"MEAN_MOTION_DOT":2.655e-5,"MEAN_MOTION_DDOT":0}]
